[{"OBJECT_NAME":"STARLINK-31209","OBJECT_ID":"2024-020H","EPOCH":"2025-10-31T16:54:11.209824","MEAN_MOTION":15.30181497,"ECCENTRICITY":0.0001275,"INCLINATION":53.1603,"RA_OF_ASC_NODE":201.4938,"ARG_OF_PERICENTER":83.9002,"MEAN_ANOMALY":276.2144,"EPHEMERIS_TYPE":0,"CLASSIFICATION_TYPE":"U","NORAD_CAT_ID":58883,"ELEMENT_SET_NO":999,"REV_AT_EPOCH":9832,"BSTAR":-3.8141e-5,"MEAN_MOTION_DOT":-1.488e-5,"MEAN_MOTION_DDOT":0},{"OBJECT_NAME":"STARLINK-31315","OBJECT_ID":"2024-020J","EPOCH":"2025-10-31T08:45:05.361696","MEAN_MOTION":15.33778517,"ECCENTRICITY":0.0002188,"INCLINATION":53.1593,"RA_OF_ASC_NODE":177.224,"ARG_OF_PERICENTER":144.7711,"MEAN_ANOMALY":215.3436,"EPHEMERIS_TYPE":0,"CLASSIFICATION_TYPE":"U","NORAD_CAT_ID":58884,"ELEMENT_SET_NO":999,"REV_AT_EPOCH":9863,"BSTAR":0.0011474,"MEAN_MOTION_DOT":0.00037829,"MEAN_MOTION_DDOT":0},{"OBJECT_NAME":"STARLINK-31318","OBJECT_ID":"2024-020K","EPOCH":"2025-10-31T17:45:50.365728","MEAN_MOTION":15.30182487,"ECCENTRICITY":0.0001595,"INCLINATION":53.1602,"RA_OF_ASC_NODE":201.7005,"ARG_OF_PERICENTER":103.2996,"MEAN_ANOMALY":256.8182,"EPHEMERIS_TYPE":0,"CLASSIFICATION_TYPE":"U","NORAD_CAT_ID":58885,"ELEMENT_SET_NO":999,"REV_AT_EPOCH":9832,"BSTAR":3.7439e-7,"MEAN_MOTION_DOT":-3.48e-6,"MEAN_MOTION_DDOT":0},{"OBJECT_NAME":"STARLINK-31320","OBJECT_ID":"2024-020L","EPOCH":"2025-10-31T16:58:44.612256","MEAN_MOTION":15.30178735,"ECCENTRICITY":0.0001203,"INCLINATION":53.1608,"RA_OF_ASC_NODE":201.509,"ARG_OF_PERICENTER":91.4671,"MEAN_ANOMALY":268.6468,"EPHEMERIS_TYPE":0,"CLASSIFICATION_TYPE":"U","NORAD_CAT_ID":58886,"ELEMENT_SET_NO":999,"REV_AT_EPOCH":9832,"BSTAR":-3.2861e-5,"MEAN_MOTION_DOT":-1.331e-5,"MEAN_MOTION_DDOT":0},{"OBJECT_NAME":"STARLINK-31321","OBJECT_ID":"2024-020M","EPOCH":"2025-10-31T17:03:17.872992","MEAN_MOTION":15.30173044,"ECCENTRICITY":0.0001633,"INCLINATION":53.1606,"RA_OF_ASC_NODE":201.5254,"ARG_OF_PERICENTER":110.5224,"MEAN_ANOMALY":249.5952,"EPHEMERIS_TYPE":0,"CLASSIFICATION_TYPE":"U","NORAD_CAT_ID":58887,"ELEMENT_SET_NO":999,"REV_AT_EPOCH":9948,"BSTAR":4.4747e-5,"MEAN_MOTION_DOT":9.65e-6,"MEAN_MOTION_DDOT":0},{"OBJECT_NAME":"STARLINK-31007","OBJECT_ID":"2024-020P","EPOCH":"2025-10-31T10:51:38.653344","MEAN_MOTION":15.30177349,"ECCENTRICITY":0.0001211,"INCLINATION":53.16,"RA_OF_ASC_NODE":202.7621,"ARG_OF_PERICENTER":83.68,"MEAN_ANOMALY":276.4338,"EPHEMERIS_TYPE":0,"CLASSIFICATION_TYPE":"U","NORAD_CAT_ID":58889,"ELEMENT_SET_NO":999,"REV_AT_EPOCH":9828,"BSTAR":-9.2387e-6,"MEAN_MOTION_DOT":-6.32e-6,"MEAN_MOTION_DDOT":0},{"OBJECT_NAME":"STARLINK-31230","OBJECT_ID":"2024-020Q","EPOCH":"2025-10-31T16:54:56.676096","MEAN_MOTION":15.30181692,"ECCENTRICITY":0.0001366,"INCLINATION":53.1615,"RA_OF_ASC_NODE":199.3898,"ARG_OF_PERICENTER":105.0617,"MEAN_ANOMALY":255.0535,"EPHEMERIS_TYPE":0,"CLASSIFICATION_TYPE":"U","NORAD_CAT_ID":58890,"ELEMENT_SET_NO":999,"REV_AT_EPOCH":9835,"BSTAR":-1.4413e-5,"MEAN_MOTION_DOT":-7.86e-6,"MEAN_MOTION_DDOT":0},{"OBJECT_NAME":"STARLINK-31245","OBJECT_ID":"2024-020R","EPOCH":"2025-10-31T18:11:17.827872","MEAN_MOTION":15.30192609,"ECCENTRICITY":0.0001031,"INCLINATION":53.1593,"RA_OF_ASC_NODE":160.1507,"ARG_OF_PERICENTER":88.3429,"MEAN_ANOMALY":271.769,"EPHEMERIS_TYPE":0,"CLASSIFICATION_TYPE":"U","NORAD_CAT_ID":58891,"ELEMENT_SET_NO":999,"REV_AT_EPOCH":10006,"BSTAR":-9.3094e-6,"MEAN_MOTION_DOT":-6.35e-6,"MEAN_MOTION_DDOT":0},{"OBJECT_NAME":"STARLINK-31254","OBJECT_ID":"2024-020S","EPOCH":"2025-10-31T20:00:03.000384","MEAN_MOTION":15.42181174,"ECCENTRICITY":0.0009662,"INCLINATION":53.1555,"RA_OF_ASC_NODE":199.6754,"ARG_OF_PERICENTER":172.9855,"MEAN_ANOMALY":82.3938,"EPHEMERIS_TYPE":0,"CLASSIFICATION_TYPE":"U","NORAD_CAT_ID":58892,"ELEMENT_SET_NO":999,"REV_AT_EPOCH":591,"BSTAR":0.0047575,"MEAN_MOTION_DOT":0.00212865,"MEAN_MOTION_DDOT":0},{"OBJECT_NAME":"STARLINK-31255","OBJECT_ID":"2024-020T","EPOCH":"2025-10-31T17:12:24.981120","MEAN_MOTION":15.30175745,"ECCENTRICITY":0.00016,"INCLINATION":53.1605,"RA_OF_ASC_NODE":201.5631,"ARG_OF_PERICENTER":109.3226,"MEAN_ANOMALY":250.7948,"EPHEMERIS_TYPE":0,"CLASSIFICATION_TYPE":"U","NORAD_CAT_ID":58893,"ELEMENT_SET_NO":999,"REV_AT_EPOCH":9832,"BSTAR":1.5614e-5,"MEAN_MOTION_DOT":1.03e-6,"MEAN_MOTION_DDOT":0},{"OBJECT_NAME":"STARLINK-31243","OBJECT_ID":"2024-020U","EPOCH":"2025-10-31T17:16:58.296288","MEAN_MOTION":15.30182672,"ECCENTRICITY":0.0001141,"INCLINATION":53.1593,"RA_OF_ASC_NODE":201.5855,"ARG_OF_PERICENTER":74.6452,"MEAN_ANOMALY":285.4674,"EPHEMERIS_TYPE":0,"CLASSIFICATION_TYPE":"U","NORAD_CAT_ID":58894,"ELEMENT_SET_NO":999,"REV_AT_EPOCH":9832,"BSTAR":9.4228e-7,"MEAN_MOTION_DOT":-3.31e-6,"MEAN_MOTION_DDOT":0},{"OBJECT_NAME":"STARLINK-31218","OBJECT_ID":"2024-020V","EPOCH":"2025-10-31T17:21:31.430016","MEAN_MOTION":15.30160973,"ECCENTRICITY":0.0001319,"INCLINATION":53.1603,"RA_OF_ASC_NODE":201.6107,"ARG_OF_PERICENTER":105.3144,"MEAN_ANOMALY":254.8002,"EPHEMERIS_TYPE":0,"CLASSIFICATION_TYPE":"U","NORAD_CAT_ID":58895,"ELEMENT_SET_NO":999,"REV_AT_EPOCH":9832,"BSTAR":0.00015786,"MEAN_MOTION_DOT":4.314e-5,"MEAN_MOTION_DDOT":0},{"OBJECT_NAME":"STARLINK-31190","OBJECT_ID":"2024-020X","EPOCH":"2025-10-31T17:32:10.161024","MEAN_MOTION":15.30177188,"ECCENTRICITY":0.0001827,"INCLINATION":53.1601,"RA_OF_ASC_NODE":201.643,"ARG_OF_PERICENTER":114.0948,"MEAN_ANOMALY":246.0244,"EPHEMERIS_TYPE":0,"CLASSIFICATION_TYPE":"U","NORAD_CAT_ID":58897,"ELEMENT_SET_NO":999,"REV_AT_EPOCH":9832,"BSTAR":6.0223e-5,"MEAN_MOTION_DOT":1.423e-5,"MEAN_MOTION_DDOT":0},{"OBJECT_NAME":"STARLINK-31317","OBJECT_ID":"2024-027A","EPOCH":"2025-10-31T20:21:11.699712","MEAN_MOTION":15.30178017,"ECCENTRICITY":0.0001366,"INCLINATION":53.1609,"RA_OF_ASC_NODE":187.9745,"ARG_OF_PERICENTER":83.3087,"MEAN_ANOMALY":276.807,"EPHEMERIS_TYPE":0,"CLASSIFICATION_TYPE":"U","NORAD_CAT_ID":58931,"ELEMENT_SET_NO":999,"REV_AT_EPOCH":9744,"BSTAR":0.00010584,"MEAN_MOTION_DOT":2.775e-5,"MEAN_MOTION_DDOT":0},{"OBJECT_NAME":"STARLINK-31378","OBJECT_ID":"2024-027B","EPOCH":"2025-10-31T20:25:44.831712","MEAN_MOTION":15.30187973,"ECCENTRICITY":7.93e-5,"INCLINATION":53.159,"RA_OF_ASC_NODE":187.9904,"ARG_OF_PERICENTER":90.9736,"MEAN_ANOMALY":269.1356,"EPHEMERIS_TYPE":0,"CLASSIFICATION_TYPE":"U","NORAD_CAT_ID":58932,"ELEMENT_SET_NO":999,"REV_AT_EPOCH":9760,"BSTAR":1.787e-5,"MEAN_MOTION_DOT":1.7e-6,"MEAN_MOTION_DDOT":0},{"OBJECT_NAME":"STARLINK-31350","OBJECT_ID":"2024-027C","EPOCH":"2025-10-31T20:12:04.235616","MEAN_MOTION":15.30192075,"ECCENTRICITY":9.64e-5,"INCLINATION":53.1593,"RA_OF_ASC_NODE":187.9291,"ARG_OF_PERICENTER":70.7695,"MEAN_ANOMALY":289.341,"EPHEMERIS_TYPE":0,"CLASSIFICATION_TYPE":"U","NORAD_CAT_ID":58933,"ELEMENT_SET_NO":999,"REV_AT_EPOCH":9760,"BSTAR":-2.8718e-5,"MEAN_MOTION_DOT":-1.209e-5,"MEAN_MOTION_DDOT":0},{"OBJECT_NAME":"STARLINK-31337","OBJECT_ID":"2024-027D","EPOCH":"2025-10-31T16:59:24.111744","MEAN_MOTION":15.30192119,"ECCENTRICITY":0.0001223,"INCLINATION":53.1595,"RA_OF_ASC_NODE":188.5183,"ARG_OF_PERICENTER":96.6406,"MEAN_ANOMALY":263.4734,"EPHEMERIS_TYPE":0,"CLASSIFICATION_TYPE":"U","NORAD_CAT_ID":58934,"ELEMENT_SET_NO":999,"REV_AT_EPOCH":9758,"BSTAR":2.6023e-5,"MEAN_MOTION_DOT":4.11e-6,"MEAN_MOTION_DDOT":0}]
