STARLINK-31209          
1 58883U 24020H   25304.70429641 -.00001488  00000+0 -38141-4 0  9990
2 58883  53.1603 201.4938 0001275  83.9002 276.2144 15.30181497 98323
STARLINK-31315          
1 58884U 24020J   25304.36464539  .00037829  00000+0  11474-2 0  9992
2 58884  53.1593 177.2240 0002188 144.7711 215.3436 15.33778517 98635
STARLINK-31318          
1 58885U 24020K   25304.74016627 -.00000348  00000+0  37439-6 0  9996
2 58885  53.1602 201.7005 0001595 103.2996 256.8182 15.30182487 98321
STARLINK-31320          
1 58886U 24020L   25304.70746079 -.00001331  00000+0 -32861-4 0  9990
2 58886  53.1608 201.5090 0001203  91.4671 268.6468 15.30178735 98323
STARLINK-31321          
1 58887U 24020M   25304.71062353  .00000965  00000+0  44747-4 0  9994
2 58887  53.1606 201.5254 0001633 110.5224 249.5952 15.30173044 99480
STARLINK-31007          
1 58889U 24020P   25304.45253071 -.00000632  00000+0 -92387-5 0  9993
2 58889  53.1600 202.7621 0001211  83.6800 276.4338 15.30177349 98285
STARLINK-31230          
1 58890U 24020Q   25304.70482264 -.00000786  00000+0 -14413-4 0  9994
2 58890  53.1615 199.3898 0001366 105.0617 255.0535 15.30181692 98352
STARLINK-31245          
1 58891U 24020R   25304.75784523 -.00000635  00000+0 -93094-5 0  9999
2 58891  53.1593 160.1507 0001031  88.3429 271.7690 15.30192609100063
STARLINK-31254          
1 58892U 24020S   25304.83336806  .00212865  00000+0  47575-2 0  9994
2 58892  53.1555 199.6754 0009662 172.9855  82.3938 15.42181174  5911
STARLINK-31255          
1 58893U 24020T   25304.71695580  .00000103  00000+0  15614-4 0  9990
2 58893  53.1605 201.5631 0001600 109.3226 250.7948 15.30175745 98328
STARLINK-31243          
1 58894U 24020U   25304.72011917 -.00000331  00000+0  94228-6 0  9992
2 58894  53.1593 201.5855 0001141  74.6452 285.4674 15.30182672 98326
STARLINK-31218          
1 58895U 24020V   25304.72328044  .00004314  00000+0  15786-3 0  9998
2 58895  53.1603 201.6107 0001319 105.3144 254.8002 15.30160973 98322
STARLINK-31190          
1 58897U 24020X   25304.73067316  .00001423  00000+0  60223-4 0  9998
2 58897  53.1601 201.6430 0001827 114.0948 246.0244 15.30177188 98321
STARLINK-31317          
1 58931U 24027A   25304.84805208  .00002775  00000+0  10584-3 0  9991
2 58931  53.1609 187.9745 0001366  83.3087 276.8070 15.30178017 97445
STARLINK-31378          
1 58932U 24027B   25304.85121333  .00000170  00000+0  17870-4 0  9996
2 58932  53.1590 187.9904 0000793  90.9736 269.1356 15.30187973 97601
STARLINK-31350          
1 58933U 24027C   25304.84171569 -.00001209  00000+0 -28718-4 0  9991
2 58933  53.1593 187.9291 0000964  70.7695 289.3410 15.30192075 97608
STARLINK-31337          
1 58934U 24027D   25304.70791796  .00000411  00000+0  26023-4 0  9996
2 58934  53.1595 188.5183 0001223  96.6406 263.4734 15.30192119 97582
